[{"OBJECT_NAME":"TROOP-F2","OBJECT_ID":"2024-149CT","EPOCH":"2026-03-09T19:32:55.399776","MEAN_MOTION":15.71081872,"ECCENTRICITY":0.00034643,"INCLINATION":97.3621,"RA_OF_ASC_NODE":159.7382,"ARG_OF_PERICENTER":230.7595,"MEAN_ANOMALY":129.3361,"EPHEMERIS_TYPE":0,"CLASSIFICATION_TYPE":"U","NORAD_CAT_ID":60557,"ELEMENT_SET_NO":999,"REV_AT_EPOCH":8756,"BSTAR":0.001093104,"MEAN_MOTION_DOT":0.00139132,"MEAN_MOTION_DDOT":0},{"OBJECT_NAME":"STARLINK-11669 [DTC]","OBJECT_ID":"2025-075A","EPOCH":"2026-03-09T13:31:46.243488","MEAN_MOTION":15.70875232,"ECCENTRICITY":0.0001795,"INCLINATION":43.0008,"RA_OF_ASC_NODE":154.1309,"ARG_OF_PERICENTER":303.2226,"MEAN_ANOMALY":56.8469,"EPHEMERIS_TYPE":0,"CLASSIFICATION_TYPE":"U","NORAD_CAT_ID":63548,"ELEMENT_SET_NO":999,"REV_AT_EPOCH":5323,"BSTAR":0.0018362,"MEAN_MOTION_DOT":0.00242519,"MEAN_MOTION_DDOT":0}]
