TROOP-F2                
1 60557U 24149CT  26068.81453008  .00139132  00000+0  10931-2 0  9998
2 60557  97.3621 159.7382 0003464 230.7595 129.3361 15.71081872 87567
STARLINK-11669 [DTC]    
1 63548U 25075A   26068.56372967  .00242519  00000+0  18362-2 0  9996
2 63548  43.0008 154.1309 0001795 303.2226  56.8469 15.70875232 53237
